DUCHIFAT-3              
1 44854U 19089C   20167.22980849  .00000252  00000-0  26798-4 0  9995
2 44854  36.9655 111.4916 0007983  37.2258 322.9038 14.99067768 27966
ORBITAL FACTORY 2 (OF-2)
1 45113U 19071C   20166.94234315  .00001207  00000-0  48439-4 0  9990
2 45113  51.6455  15.6792 0013525  50.6636 309.5542 15.33348553 20745
